CCSDS_OMM_VERS = 2.0
CREATION_DATE  = 
ORIGINATOR     = 

OBJECT_NAME    = STARLINK-36222
OBJECT_ID      = 2025-298Y
CENTER_NAME    = EARTH
REF_FRAME      = TEME
TIME_SYSTEM    = UTC
MEAN_ELEMENT_THEORY = SGP/SGP4

EPOCH          = 2026-01-12T20:00:04.000032
MEAN_MOTION    = 15.42677367
ECCENTRICITY   = .0003472
INCLINATION    = 69.9992
RA_OF_ASC_NODE = 163.0866
ARG_OF_PERICENTER = 283.3867
MEAN_ANOMALY   = 162.1501

EPHEMERIS_TYPE = 0
CLASSIFICATION_TYPE = U
NORAD_CAT_ID   = 67097
ELEMENT_SET_NO = 999
REV_AT_EPOCH   = 591
BSTAR          = .18189E-2
MEAN_MOTION_DOT = .80248E-3
MEAN_MOTION_DDOT = 0

CCSDS_OMM_VERS = 2.0
CREATION_DATE  = 
ORIGINATOR     = 

OBJECT_NAME    = STARLINK-36205
OBJECT_ID      = 2025-298Z
CENTER_NAME    = EARTH
REF_FRAME      = TEME
TIME_SYSTEM    = UTC
MEAN_ELEMENT_THEORY = SGP/SGP4

EPOCH          = 2026-01-12T17:40:40.248480
MEAN_MOTION    = 15.42733948
ECCENTRICITY   = .000379
INCLINATION    = 69.9985
RA_OF_ASC_NODE = 163.6540
ARG_OF_PERICENTER = 271.2012
MEAN_ANOMALY   = 88.8736

EPHEMERIS_TYPE = 0
CLASSIFICATION_TYPE = U
NORAD_CAT_ID   = 67098
ELEMENT_SET_NO = 999
REV_AT_EPOCH   = 463
BSTAR          = .96411E-3
MEAN_MOTION_DOT = .42338E-3
MEAN_MOTION_DDOT = 0

CCSDS_OMM_VERS = 2.0
CREATION_DATE  = 
ORIGINATOR     = 

OBJECT_NAME    = STARLINK-36193
OBJECT_ID      = 2025-298AA
CENTER_NAME    = EARTH
REF_FRAME      = TEME
TIME_SYSTEM    = UTC
MEAN_ELEMENT_THEORY = SGP/SGP4

EPOCH          = 2026-01-12T20:12:08.840736
MEAN_MOTION    = 15.42724560
ECCENTRICITY   = .0002984
INCLINATION    = 70.0003
RA_OF_ASC_NODE = 163.6262
ARG_OF_PERICENTER = 276.7138
MEAN_ANOMALY   = 83.3704

EPHEMERIS_TYPE = 0
CLASSIFICATION_TYPE = U
NORAD_CAT_ID   = 67099
ELEMENT_SET_NO = 999
REV_AT_EPOCH   = 464
BSTAR          = .10541E-2
MEAN_MOTION_DOT = .46308E-3
MEAN_MOTION_DDOT = 0

CCSDS_OMM_VERS = 2.0
CREATION_DATE  = 
ORIGINATOR     = 

OBJECT_NAME    = STARLINK-36215
OBJECT_ID      = 2025-298AB
CENTER_NAME    = EARTH
REF_FRAME      = TEME
TIME_SYSTEM    = UTC
MEAN_ELEMENT_THEORY = SGP/SGP4

EPOCH          = 2026-01-12T20:00:04.000032
MEAN_MOTION    = 15.47044907
ECCENTRICITY   = .0003601
INCLINATION    = 69.9995
RA_OF_ASC_NODE = 163.0156
ARG_OF_PERICENTER = 289.3161
MEAN_ANOMALY   = 216.7390

EPHEMERIS_TYPE = 0
CLASSIFICATION_TYPE = U
NORAD_CAT_ID   = 67100
ELEMENT_SET_NO = 999
REV_AT_EPOCH   = 597
BSTAR          = -.44184E-1
MEAN_MOTION_DOT = -.200256E-1
MEAN_MOTION_DDOT = 0

CCSDS_OMM_VERS = 2.0
CREATION_DATE  = 
ORIGINATOR     = 

OBJECT_NAME    = STARLINK-36200
OBJECT_ID      = 2025-298AC
CENTER_NAME    = EARTH
REF_FRAME      = TEME
TIME_SYSTEM    = UTC
MEAN_ELEMENT_THEORY = SGP/SGP4

EPOCH          = 2026-01-12T20:24:04.732128
MEAN_MOTION    = 15.42718300
ECCENTRICITY   = .0003143
INCLINATION    = 70.0001
RA_OF_ASC_NODE = 163.2449
ARG_OF_PERICENTER = 270.8846
MEAN_ANOMALY   = 89.1976

EPHEMERIS_TYPE = 0
CLASSIFICATION_TYPE = U
NORAD_CAT_ID   = 67101
ELEMENT_SET_NO = 999
REV_AT_EPOCH   = 465
BSTAR          = .10525E-2
MEAN_MOTION_DOT = .4623E-3
MEAN_MOTION_DDOT = 0

CCSDS_OMM_VERS = 2.0
CREATION_DATE  = 
ORIGINATOR     = 

OBJECT_NAME    = STARLINK-36255
OBJECT_ID      = 2025-299A
CENTER_NAME    = EARTH
REF_FRAME      = TEME
TIME_SYSTEM    = UTC
MEAN_ELEMENT_THEORY = SGP/SGP4

EPOCH          = 2026-01-12T14:27:07.555392
MEAN_MOTION    = 15.40717873
ECCENTRICITY   = .0000647
INCLINATION    = 42.9981
RA_OF_ASC_NODE = 132.2200
ARG_OF_PERICENTER = 293.4071
MEAN_ANOMALY   = 66.6717

EPHEMERIS_TYPE = 0
CLASSIFICATION_TYPE = U
NORAD_CAT_ID   = 67102
ELEMENT_SET_NO = 999
REV_AT_EPOCH   = 446
BSTAR          = .10034E-2
MEAN_MOTION_DOT = .41866E-3
MEAN_MOTION_DDOT = 0

CCSDS_OMM_VERS = 2.0
CREATION_DATE  = 
ORIGINATOR     = 

OBJECT_NAME    = STARLINK-36256
OBJECT_ID      = 2025-299B
CENTER_NAME    = EARTH
REF_FRAME      = TEME
TIME_SYSTEM    = UTC
MEAN_ELEMENT_THEORY = SGP/SGP4

EPOCH          = 2026-01-12T17:27:22.980384
MEAN_MOTION    = 15.40693634
ECCENTRICITY   = .0001793
INCLINATION    = 42.9997
RA_OF_ASC_NODE = 131.4395
ARG_OF_PERICENTER = 279.6749
MEAN_ANOMALY   = 80.3905

EPHEMERIS_TYPE = 0
CLASSIFICATION_TYPE = U
NORAD_CAT_ID   = 67103
ELEMENT_SET_NO = 999
REV_AT_EPOCH   = 448
BSTAR          = .80316E-3
MEAN_MOTION_DOT = .33386E-3
MEAN_MOTION_DDOT = 0

CCSDS_OMM_VERS = 2.0
CREATION_DATE  = 
ORIGINATOR     = 

OBJECT_NAME    = STARLINK-36258
OBJECT_ID      = 2025-299C
CENTER_NAME    = EARTH
REF_FRAME      = TEME
TIME_SYSTEM    = UTC
MEAN_ELEMENT_THEORY = SGP/SGP4

EPOCH          = 2026-01-12T17:45:48.679200
MEAN_MOTION    = 15.48645046
ECCENTRICITY   = .0002617
INCLINATION    = 42.9967
RA_OF_ASC_NODE = 130.6630
ARG_OF_PERICENTER = 307.0040
MEAN_ANOMALY   = 53.0579

EPHEMERIS_TYPE = 0
CLASSIFICATION_TYPE = U
NORAD_CAT_ID   = 67104
ELEMENT_SET_NO = 999
REV_AT_EPOCH   = 449
BSTAR          = -.54123E-2
MEAN_MOTION_DOT = -.286281E-2
MEAN_MOTION_DDOT = 0

CCSDS_OMM_VERS = 2.0
CREATION_DATE  = 
ORIGINATOR     = 

OBJECT_NAME    = STARLINK-36261
OBJECT_ID      = 2025-299D
CENTER_NAME    = EARTH
REF_FRAME      = TEME
TIME_SYSTEM    = UTC
MEAN_ELEMENT_THEORY = SGP/SGP4

EPOCH          = 2026-01-12T17:30:36.278784
MEAN_MOTION    = 15.40702012
ECCENTRICITY   = .0001684
INCLINATION    = 42.9994
RA_OF_ASC_NODE = 131.4565
ARG_OF_PERICENTER = 256.1804
MEAN_ANOMALY   = 103.8865

EPHEMERIS_TYPE = 0
CLASSIFICATION_TYPE = U
NORAD_CAT_ID   = 67105
ELEMENT_SET_NO = 999
REV_AT_EPOCH   = 448
BSTAR          = .61205E-3
MEAN_MOTION_DOT = .2535E-3
MEAN_MOTION_DDOT = 0

CCSDS_OMM_VERS = 2.0
CREATION_DATE  = 
ORIGINATOR     = 

OBJECT_NAME    = STARLINK-36259
OBJECT_ID      = 2025-299E
CENTER_NAME    = EARTH
REF_FRAME      = TEME
TIME_SYSTEM    = UTC
MEAN_ELEMENT_THEORY = SGP/SGP4

EPOCH          = 2026-01-12T17:04:48.439200
MEAN_MOTION    = 15.40698915
ECCENTRICITY   = .0001131
INCLINATION    = 42.9986
RA_OF_ASC_NODE = 131.3173
ARG_OF_PERICENTER = 288.2691
MEAN_ANOMALY   = 71.8042

EPHEMERIS_TYPE = 0
CLASSIFICATION_TYPE = U
NORAD_CAT_ID   = 67106
ELEMENT_SET_NO = 999
REV_AT_EPOCH   = 448
BSTAR          = .12382E-2
MEAN_MOTION_DOT = .51767E-3
MEAN_MOTION_DDOT = 0

CCSDS_OMM_VERS = 2.0
CREATION_DATE  = 
ORIGINATOR     = 

OBJECT_NAME    = STARLINK-36196
OBJECT_ID      = 2025-299F
CENTER_NAME    = EARTH
REF_FRAME      = TEME
TIME_SYSTEM    = UTC
MEAN_ELEMENT_THEORY = SGP/SGP4

EPOCH          = 2026-01-12T20:00:04.000032
MEAN_MOTION    = 15.40664223
ECCENTRICITY   = .0001365
INCLINATION    = 42.9996
RA_OF_ASC_NODE = 130.4063
ARG_OF_PERICENTER = 268.9789
MEAN_ANOMALY   = 134.0710

EPHEMERIS_TYPE = 0
CLASSIFICATION_TYPE = U
NORAD_CAT_ID   = 67107
ELEMENT_SET_NO = 999
REV_AT_EPOCH   = 580
BSTAR          = .1852E-2
MEAN_MOTION_DOT = .77758E-3
MEAN_MOTION_DDOT = 0

CCSDS_OMM_VERS = 2.0
CREATION_DATE  = 
ORIGINATOR     = 

OBJECT_NAME    = STARLINK-36208
OBJECT_ID      = 2025-299G
CENTER_NAME    = EARTH
REF_FRAME      = TEME
TIME_SYSTEM    = UTC
MEAN_ELEMENT_THEORY = SGP/SGP4

EPOCH          = 2026-01-12T20:00:04.000032
MEAN_MOTION    = 15.40641886
ECCENTRICITY   = .0001937
INCLINATION    = 42.9993
RA_OF_ASC_NODE = 130.1936
ARG_OF_PERICENTER = 291.8024
MEAN_ANOMALY   = 198.3706

EPHEMERIS_TYPE = 0
CLASSIFICATION_TYPE = U
NORAD_CAT_ID   = 67108
ELEMENT_SET_NO = 999
REV_AT_EPOCH   = 580
BSTAR          = .20853E-2
MEAN_MOTION_DOT = .87642E-3
MEAN_MOTION_DDOT = 0

