STARLINK-36222          
1 67097U 25298Y   26012.83337963  .00080248  00000+0  18189-2 0  9998
2 67097  69.9992 163.0866 0003472 283.3867 162.1501 15.42677367  5917
STARLINK-36205          
1 67098U 25298Z   26012.73657695  .00042338  00000+0  96411-3 0  9998
2 67098  69.9985 163.6540 0003790 271.2012  88.8736 15.42733948  4636
STARLINK-36193          
1 67099U 25298AA  26012.84176899  .00046308  00000+0  10541-2 0  9993
2 67099  70.0003 163.6262 0002984 276.7138  83.3704 15.42724560  4641
STARLINK-36215          
1 67100U 25298AB  26012.83337963 -.02002560  00000+0 -44184-1 0  9991
2 67100  69.9995 163.0156 0003601 289.3161 216.7390 15.47044907  5975
STARLINK-36200          
1 67101U 25298AC  26012.85005477  .00046230  00000+0  10525-2 0  9997
2 67101  70.0001 163.2449 0003143 270.8846  89.1976 15.42718300  4656
STARLINK-36255          
1 67102U 25299A   26012.60217078  .00041866  00000+0  10034-2 0  9999
2 67102  42.9981 132.2200 0000647 293.4071  66.6717 15.40717873  4464
STARLINK-36256          
1 67103U 25299B   26012.72734931  .00033386  00000+0  80316-3 0  9994
2 67103  42.9997 131.4395 0001793 279.6749  80.3905 15.40693634  4481
STARLINK-36258          
1 67104U 25299C   26012.74014675 -.00286281  00000+0 -54123-2 0  9995
2 67104  42.9967 130.6630 0002617 307.0040  53.0579 15.48645046  4495
STARLINK-36261          
1 67105U 25299D   26012.72958656  .00025350  00000+0  61205-3 0  9996
2 67105  42.9994 131.4565 0001684 256.1804 103.8865 15.40702012  4487
STARLINK-36259          
1 67106U 25299E   26012.71167175  .00051767  00000+0  12382-2 0  9996
2 67106  42.9986 131.3173 0001131 288.2691  71.8042 15.40698915  4487
STARLINK-36196          
1 67107U 25299F   26012.83337963  .00077758  00000+0  18520-2 0  9992
2 67107  42.9996 130.4063 0001365 268.9789 134.0710 15.40664223  5805
STARLINK-36208          
1 67108U 25299G   26012.83337963  .00087642  00000+0  20853-2 0  9998
2 67108  42.9993 130.1936 0001937 291.8024 198.3706 15.40641886  5809
